NORAD_CAT_ID,OBJECT_NAME,OBJECT_TYPE,EPOCH,MEAN_MOTION,ECCENTRICITY,INCLINATION,RA_OF_ASC_NODE,ARG_OF_PERICENTER,MEAN_ANOMALY,BSTAR,MEAN_MOTION_DOT,MEAN_MOTION_DDOT,TLE_LINE0,TLE_LINE1,TLE_LINE2,SEMIMAJOR_AXIS,PERIOD,APOGEE,PERIGEE,DECAYED
55776.0,STARLINK-5810,PAYLOAD,2024-03-20 20:33:11,14.9832491,0.0003012,70.001,236.6936,267.2884,92.793,-2.4887e-05,-3.9e-06,0.0,0 STARLINK-5810,1 55776U 23028AM  24080.85638414 -.00000390  00000-0 -24887-4 0  9995,2 55776  70.0010 236.6936 0003012 267.2884  92.7930 14.98324910 58866,6950.209,96.107,574.167,569.98,0.0
55776.0,STARLINK-5810,PAYLOAD,2024-03-21 12:34:31,14.98334126,0.00028,70.0008,235.0101,264.8858,95.1982,-2.0493e-05,-3.37e-06,0.0,0 STARLINK-5810,1 55776U 23028AM  24081.52397841 -.00000337  00000-0 -20493-4 0  9996,2 55776  70.0008 235.0101 0002800 264.8858  95.1982 14.98334126 58963,6950.18,96.107,573.991,570.099,0.0
55776.0,STARLINK-5810,PAYLOAD,2024-03-21 14:10:39,14.98334244,0.0002838,70.0008,234.8419,265.2627,94.8208,-2.0942e-05,-3.43e-06,0.0,0 STARLINK-5810,1 55776U 23028AM  24081.59073814 -.00000343  00000-0 -20942-4 0  9990,2 55776  70.0008 234.8419 0002838 265.2627  94.8208 14.98334244 58971,6950.18,96.107,574.017,570.072,0.0
55776.0,STARLINK-5810,PAYLOAD,2024-03-21 20:35:11,14.98338255,0.0002562,70.0011,234.1644,264.9601,95.1266,8.5086e-05,9.23e-06,0.0,0 STARLINK-5810,1 55776U 23028AM  24081.85777210  .00000923  00000-0  85086-4 0  9992,2 55776  70.0011 234.1644 0002562 264.9601  95.1266 14.98338255 59010,6950.167,96.106,573.813,570.252,0.0
55776.0,STARLINK-5810,PAYLOAD,2024-03-22 12:36:32,14.98335524,0.0002722,70.0004,232.4824,255.8311,104.2546,3.8682e-05,3.69e-06,0.0,0 STARLINK-5810,1 55776U 23028AM  24082.52537210  .00000369  00000-0  38682-4 0  9995,2 55776  70.0004 232.4824 0002722 255.8311 104.2546 14.98335524 59118,6950.176,96.107,573.933,570.149,0.0
55776.0,STARLINK-5810,PAYLOAD,2024-03-22 14:12:40,14.98333136,0.0002748,70.0006,232.3145,255.4792,104.6062,6.4786e-05,6.8e-06,0.0,0 STARLINK-5810,1 55776U 23028AM  24082.59213241  .00000680  00000-0  64786-4 0  9997,2 55776  70.0006 232.3145 0002748 255.4792 104.6062 14.98333136 59127,6950.183,96.107,573.958,570.138,0.0
55776.0,STARLINK-5810,PAYLOAD,2024-03-22 20:37:12,14.98335161,0.0002898,70.0003,231.6419,264.5822,95.5007,0.00010791,1.195e-05,0.0,0 STARLINK-5810,1 55776U 23028AM  24082.85916983  .00001195  00000-0  10791-3 0  9997,2 55776  70.0003 231.6419 0002898 264.5822  95.5007 14.98335161 59162,6950.177,96.107,574.056,570.028,0.0
55776.0,STARLINK-5810,PAYLOAD,2024-03-23 12:38:33,14.98325864,0.000263,69.9992,229.9556,260.3416,99.7446,-8.8654e-05,-1.15e-05,0.0,0 STARLINK-5810,1 55776U 23028AM  24083.52678219 -.00001150  00000-0 -88654-4 0  9996,2 55776  69.9992 229.9556 0002630 260.3416  99.7446 14.98325864 59268,6950.206,96.107,573.899,570.243,0.0
55776.0,STARLINK-5810,PAYLOAD,2024-03-23 19:03:06,14.98322334,0.0002412,70.0015,229.2852,256.117,103.9721,-7.6012e-05,-1e-05,0.0,0 STARLINK-5810,1 55776U 23028AM  24083.79382625 -.00001000  00000-0 -76012-4 0  9997,2 55776  70.0015 229.2852 0002412 256.1170 103.9721 14.98322334 59305,6950.217,96.107,573.758,570.405,0.0
55776.0,STARLINK-5810,PAYLOAD,2024-03-24 12:40:34,14.98328623,0.0002818,70.0009,227.4346,260.8279,99.2561,-5.215e-05,-7.15e-06,0.0,0 STARLINK-5810,1 55776U 23028AM  24084.52818126 -.00000715  00000-0 -52150-4 0  9998,2 55776  70.0009 227.4346 0002818 260.8279  99.2561 14.98328623 59416,6950.197,96.107,574.021,570.104,0.0
55776.0,STARLINK-5810,PAYLOAD,2024-03-24 14:16:42,14.98329105,0.0002814,70.0009,227.2655,258.5979,101.4864,-5.4306e-05,-7.41e-06,0.0,0 STARLINK-5810,1 55776U 23028AM  24084.59494096 -.00000741  00000-0 -54306-4 0  9995,2 55776  70.0009 227.2655 0002814 258.5979 101.4864 14.98329105 59423,6950.196,96.107,574.016,570.105,0.0
55776.0,STARLINK-5810,PAYLOAD,2024-03-24 19:05:06,14.98333474,0.0002581,70.0016,226.761,247.0995,112.9892,2.9947e-05,2.64e-06,0.0,0 STARLINK-5810,1 55776U 23028AM  24084.79521583  .00000264  00000-0  29947-4 0  9990,2 55776  70.0016 226.7610 0002581 247.0995 112.9892 14.98333474 59453,6950.182,96.107,573.841,570.253,0.0
55776.0,STARLINK-5810,PAYLOAD,2024-03-25 19:07:07,14.98335021,0.0003037,70.0007,224.2366,268.1895,91.8916,0.00019932,2.286e-05,0.0,0 STARLINK-5810,1 55776U 23028AM  24085.79661001  .00002286  00000-0  19932-3 0  9999,2 55776  70.0007 224.2366 0003037 268.1895  91.8916 14.98335021 59603,6950.177,96.107,574.153,569.932,0.0
55776.0,STARLINK-5810,PAYLOAD,2024-03-26 12:44:37,14.98322195,0.0003071,70.0007,222.3853,277.3101,82.7709,-0.00013317,-1.681e-05,0.0,0 STARLINK-5810,1 55776U 23028AM  24086.53098985 -.00001681  00000-0 -13317-3 0  9998,2 55776  70.0007 222.3853 0003071 277.3101  82.7709 14.98322195 59712,6950.217,96.107,574.216,569.948,0.0
55776.0,STARLINK-5810,PAYLOAD,2024-03-26 14:20:45,14.98322267,0.0003028,70.0006,222.2172,275.284,84.7973,-0.00013438,-1.696e-05,0.0,0 STARLINK-5810,1 55776U 23028AM  24086.59774999 -.00001696  00000-0 -13438-3 0  9990,2 55776  70.0006 222.2172 0003028 275.2840  84.7973 14.98322267 59729,6950.217,96.107,574.186,569.977,0.0
55776.0,STARLINK-5810,PAYLOAD,2024-03-26 19:09:09,14.98324462,0.0002935,70.0009,221.7125,271.1174,88.9649,-0.00010436,-1.338e-05,0.0,0 STARLINK-5810,1 55776U 23028AM  24086.79802823 -.00001338  00000-0 -10436-3 0  9998,2 55776  70.0009 221.7125 0002935 271.1174  88.9649 14.98324462 59753,6950.21,96.107,574.115,570.035,0.0
55776.0,STARLINK-5810,PAYLOAD,2024-03-27 12:46:37,14.98333106,0.0003045,70.0007,219.8609,270.6964,89.3846,-1.2142e-05,-2.38e-06,0.0,0 STARLINK-5810,1 55776U 23028AM  24087.53238055 -.00000238  00000-0 -12142-4 0  9996,2 55776  70.0007 219.8609 0003045 270.6964  89.3846 14.98333106 59861,6950.183,96.107,574.165,569.932,0.0
55776.0,STARLINK-5810,PAYLOAD,2024-03-27 19:11:09,14.98341235,0.0002982,70.0009,219.1892,265.1223,94.9596,3.6806e-05,3.46e-06,0.0,0 STARLINK-5810,1 55776U 23028AM  24087.79941269  .00000346  00000-0  36806-4 0  9993,2 55776  70.0009 219.1892 0002982 265.1223  94.9596 14.98341235 59907,6950.158,96.106,574.096,569.951,0.0
55776.0,STARLINK-5810,PAYLOAD,2024-03-28 12:48:38,14.98326502,0.0002737,70.0013,217.3375,261.573,98.5119,0.00011999,1.339e-05,0.0,0 STARLINK-5810,1 55776U 23028AM  24088.53377933  .00001339  00000-0  11999-3 0  9995,2 55776  70.0013 217.3375 0002737 261.5730  98.5119 14.98326502 60014,6950.204,96.107,573.971,570.166,0.0
55776.0,STARLINK-5810,PAYLOAD,2024-03-29 01:37:40,14.98352612,0.0002991,70.0006,215.9902,261.1571,98.9249,0.00025959,3.008e-05,0.0,0 STARLINK-5810,1 55776U 23028AM  24089.06783317  .00003008  00000-0  25959-3 0  9997,2 55776  70.0006 215.9902 0002991 261.1571  98.9249 14.98352612 60094,6950.123,96.106,574.067,569.909,0.0
55776.0,STARLINK-5810,PAYLOAD,2024-03-29 12:50:39,14.98314837,0.0002445,70.0019,214.8129,250.1358,109.9537,-0.00027909,-3.42e-05,0.0,0 STARLINK-5810,1 55776U 23028AM  24089.53518502 -.00003420  00000-0 -27909-3 0  9998,2 55776  70.0019 214.8129 0002445 250.1358 109.9537 14.98314837 60160,6950.24,96.108,573.804,570.405,0.0
55776.0,STARLINK-5810,PAYLOAD,2024-03-29 14:26:47,14.98321267,0.0002588,70.0019,214.6445,262.6746,97.4119,-0.00020161,-2.497e-05,0.0,0 STARLINK-5810,1 55776U 23028AM  24089.60193994 -.00002497  00000-0 -20161-3 0  9996,2 55776  70.0019 214.6445 0002588 262.6746  97.4119 14.98321267 60179,6950.22,96.108,573.884,570.286,0.0
55776.0,STARLINK-5810,PAYLOAD,2024-03-29 19:15:11,14.98320418,0.0002924,70.0002,214.1369,266.6398,93.4426,-0.00025124,-3.089e-05,0.0,0 STARLINK-5810,1 55776U 23028AM  24089.80222165 -.00003089  00000-0 -25124-3 0  9993,2 55776  70.0002 214.1369 0002924 266.6398  93.4426 14.98320418 60200,6950.223,96.108,574.12,570.055,0.0
55776.0,STARLINK-5810,PAYLOAD,2024-03-30 01:39:44,14.9832243,0.0002992,70.0004,213.4635,271.2126,88.869,-0.0003329,-4.062e-05,0.0,0 STARLINK-5810,1 55776U 23028AM  24090.06926317 -.00004062  00000-0 -33290-3 0  9998,2 55776  70.0004 213.4635 0002992 271.2126  88.8690 14.98322430 60247,6950.216,96.107,574.161,570.002,0.0
55776.0,STARLINK-5810,PAYLOAD,2024-03-30 14:28:48,14.98321666,0.0002787,70.0004,212.1171,262.1343,97.95,-0.00017839,-2.22e-05,0.0,0 STARLINK-5810,1 55776U 23028AM  24090.60334364 -.00002220  00000-0 -17839-3 0  9998,2 55776  70.0004 212.1171 0002787 262.1343  97.9500 14.98321666 60320,6950.219,96.108,574.021,570.147,0.0
55776.0,STARLINK-5810,PAYLOAD,2024-03-31 12:54:40,14.98336879,0.0002603,70.0025,209.7621,254.817,105.2701,-8.4338e-05,-1.099e-05,0.0,0 STARLINK-5810,1 55776U 23028AM  24091.53796800 -.00001099  00000-0 -84338-4 0  9990,2 55776  70.0025 209.7621 0002603 254.8170 105.2701 14.98336879 60461,6950.172,96.107,573.846,570.227,0.0
55776.0,STARLINK-5810,PAYLOAD,2024-03-31 14:30:47,14.98351055,0.0002923,70.0011,209.5942,267.0275,93.0549,-9.1905e-05,-1.19e-05,0.0,0 STARLINK-5810,1 55776U 23028AM  24091.60471868 -.00001190  00000-0 -91905-4 0  9992,2 55776  70.0011 209.5942 0002923 267.0275  93.0549 14.98351055 60475,6950.128,96.106,574.024,569.961,0.0
55776.0,STARLINK-5810,PAYLOAD,2024-03-31 17:43:03,14.98352128,0.0002959,70.0012,209.2574,268.3473,91.7347,-7.2157e-05,-9.54e-06,0.0,0 STARLINK-5810,1 55776U 23028AM  24091.73823629 -.00000954  00000-0 -72157-4 0  9997,2 55776  70.0012 209.2574 0002959 268.3473  91.7347 14.98352128 60492,6950.124,96.106,574.046,569.933,0.0
55776.0,STARLINK-5810,PAYLOAD,2024-04-01 01:43:45,14.98329103,0.0002541,70.0039,208.417,258.4662,101.6212,5.341e-05,5.44e-06,0.0,0 STARLINK-5810,1 55776U 23028AM  24092.07204928  .00000544  00000-0  53410-4 0  9994,2 55776  70.0039 208.4170 0002541 258.4662 101.6212 14.98329103 60546,6950.196,96.107,573.827,570.295,0.0
55776.0,STARLINK-5810,PAYLOAD,2024-04-01 11:20:34,14.98317119,0.000267,70.0014,207.4044,267.3087,92.7766,9.8695e-05,1.084e-05,0.0,0 STARLINK-5810,1 55776U 23028AM  24092.47261998  .00001084  00000-0  98695-4 0  9992,2 55776  70.0014 207.4044 0002670 267.3087  92.7766 14.98317119 60606,6950.233,96.108,573.953,570.242,0.0
